STARLINK-36246          
1 67939U 26037H   26082.16668981 -.00183616  00000+0 -31910-2 0  9997
2 67939  42.9991 117.2197 0001070 287.6908  14.9861 15.50640138  5272
STARLINK-36907          
1 67940U 26037J   26082.16668981 -.01888412  00000+0 -27577-1 0  9999
2 67940  42.9990 116.4868 0000957 274.1085 324.5224 15.58165409  5363
STARLINK-36927          
1 67941U 26037K   26082.16668981 -.01897175  00000+0 -30811-1 0  9991
2 67941  42.9996 116.6164 0000733 281.1092 265.0836 15.55366990  5362
STARLINK-36914          
1 67942U 26037L   26082.16668981 -.01920447  00000+0 -23884-1 0  9993
2 67942  42.9993 116.3131 0001285 268.2958  40.0666 15.62359637  5361
STARLINK-36851          
1 67943U 26037M   26082.16668981 -.01898632  00000+0 -29715-1 0  9993
2 67943  42.9994 116.5928 0000841 275.7483 279.8768 15.56356017  5369
STARLINK-36892          
1 67944U 26037N   26082.16668981 -.01890298  00000+0 -28686-1 0  9990
2 67944  42.9992 116.5293 0001082 265.6877 315.9783 15.57155672  5360
STARLINK-36908          
1 67945U 26037P   26082.16668981 -.01885946  00000+0 -27722-1 0  9995
2 67945  42.9993 116.4636 0000780 276.2454 331.6478 15.57990870  5368
STARLINK-36909          
1 67946U 26037Q   26082.16668981 -.01904418  00000+0 -21746-1 0  9992
2 67946  42.9997 116.1638 0001519 274.2221  93.7824 15.64473960  5368
STARLINK-36920          
1 67947U 26037R   26082.16668981 -.01586594  00000+0 -27309-1 0  9995
2 67947  42.9997 116.7061 0001459 278.3677 231.5970 15.53203928  5365
STARLINK-36873          
1 67948U 26037S   26082.16668981 -.02013163  00000+0 -36350-1 0  9990
2 67948  43.0001 116.7722 0001478 290.0920 192.6537 15.52127742  5365
STARLINK-36863          
1 67949U 26037T   26082.16668981 -.01896498  00000+0 -29372-1 0  9996
2 67949  42.9992 116.4926 0000916 270.3833 325.4450 15.56629593  5361
STARLINK-36887          
1 67950U 26037U   26082.16668981 -.00107230  00000+0 -18450-2 0  9992
2 67950  42.9989 117.3846 0001285 267.7128 327.0923 15.50611562  5361
